{
    "links": {
        "self": "http://www.neowsapp.com/rest/v1/neo/3577534?api_key=iIulBulltgU6a56xZRHN4H3l9WmuAYTsLGpBGhQ2"
    },
    "id": "3577534",
    "neo_reference_id": "3577534",
    "name": "(2011 RH1)",
    "designation": "2011 RH1",
    "nasa_jpl_url": "http://ssd.jpl.nasa.gov/sbdb.cgi?sstr=3577534",
    "absolute_magnitude_h": 23.0,
    "estimated_diameter": {
        "kilometers": {
            "estimated_diameter_min": 0.0667659413,
            "estimated_diameter_max": 0.1492931834
        },
        "meters": {
            "estimated_diameter_min": 66.7659413495,
            "estimated_diameter_max": 149.2931834393
        },
        "miles": {
            "estimated_diameter_min": 0.0414864197,
            "estimated_diameter_max": 0.0927664547
        },
        "feet": {
            "estimated_diameter_min": 219.0483710172,
            "estimated_diameter_max": 489.807047955
        }
    },
    "is_potentially_hazardous_asteroid": false,
    "close_approach_data": [
        {
            "close_approach_date": "2011-08-06",
            "close_approach_date_full": "2011-Aug-06 21:50",
            "epoch_date_close_approach": 1312667400000,
            "relative_velocity": {
                "kilometers_per_second": "4.6930212652",
                "kilometers_per_hour": "16894.8765545878",
                "miles_per_hour": "10497.8192680437"
            },
            "miss_distance": {
                "astronomical": "0.1792445759",
                "lunar": "69.7261400251",
                "kilometers": "26814606.763693333",
                "miles": "16661824.0239126754"
            },
            "orbiting_body": "Earth"
        }
    ],
    "orbital_data": {
        "orbit_id": "6",
        "orbit_determination_date": "2017-04-06 08:52:53",
        "first_observation_date": "2011-09-05",
        "last_observation_date": "2011-09-08",
        "data_arc_in_days": 3,
        "observations_used": 11,
        "orbit_uncertainty": "9",
        "minimum_orbit_intersection": ".129327",
        "jupiter_tisserand_invariant": "4.586",
        "epoch_osculation": "2455810.5",
        "eccentricity": ".2220911454002298",
        "semi_major_axis": "1.461473249852896",
        "inclination": "6.969358555472345",
        "ascending_node_longitude": "293.4312531408696",
        "orbital_period": "645.3342762653144",
        "perihelion_distance": "1.13689298182127",
        "perihelion_argument": "25.14351622997528",
        "aphelion_distance": "1.786053517884522",
        "perihelion_time": "2455778.455550630434",
        "mean_anomaly": "17.87600968571674",
        "mean_motion": ".5578504245635239",
        "equinox": "J2000",
        "orbit_class": {
            "orbit_class_type": "AMO",
            "orbit_class_description": "Near-Earth asteroid orbits similar to that of 1221 Amor",
            "orbit_class_range": "1.017 AU < q (perihelion) < 1.3 AU"
        }
    },
    "is_sentry_object": false
}